{"type": "FeatureCollection", "features": [ {"type": "Feature", "properties": {"norad_id": 61182, "name": "GSAT0232 (GALILEO 32)", "group": "gnss", "lat": -28.43196010581978, "lon": 68.17903594822013, "alt_km": 23220.45327073396, "timestamp": "2025-12-25T09:48:52.535857+00:00", "meta": {"OBJECT_NAME": "GSAT0232 (GALILEO 32)", "OBJECT_ID": "2024-167A", "EPOCH": "2025-12-24T18:25:47.943264", "MEAN_MOTION": 1.70473505, "ECCENTRICITY": 0.0001887, "INCLINATION": 55.2374, "RA_OF_ASC_NODE": 226.1008, "ARG_OF_PERICENTER": 202.1814, "MEAN_ANOMALY": 339.8736, "EPHEMERIS_TYPE": 0, "CLASSIFICATION_TYPE": "U", "NORAD_CAT_ID": 61182, "ELEMENT_SET_NO": 999, "REV_AT_EPOCH": 790, "BSTAR": 0, "MEAN_MOTION_DOT": 7.1e-07, "MEAN_MOTION_DDOT": 0}, "tle": {"line1": "1 61182U 24167A   25358.76791601  .00000071  00000+0  00000+0 0  9994", "line2": "2 61182  55.2374 226.1008 0001887 202.1814 339.8736  1.70473505  7904"}}, "geometry": {"type": "Point", "coordinates": [68.17903594822013, -28.43196010581978]}}, {"type": "Feature", "properties": {"norad_id": 61183, "name": "GSAT0226 (GALILEO 31)", "group": "gnss", "lat": -25.777314866949492, "lon": -153.48941668082676, "alt_km": 23228.373307544265, "timestamp": "2025-12-25T09:48:52.535872+00:00", "meta": {"OBJECT_NAME": "GSAT0226 (GALILEO 31)", "OBJECT_ID": "2024-167B", "EPOCH": "2025-12-23T09:50:40.022880", "MEAN_MOTION": 1.70473667, "ECCENTRICITY": 0.00012164, "INCLINATION": 55.2365, "RA_OF_ASC_NODE": 226.1435, "ARG_OF_PERICENTER": 108.5259, "MEAN_ANOMALY": 72.9218, "EPHEMERIS_TYPE": 0, "CLASSIFICATION_TYPE": "U", "NORAD_CAT_ID": 61183, "ELEMENT_SET_NO": 999, "REV_AT_EPOCH": 785, "BSTAR": 0, "MEAN_MOTION_DOT": 7.3e-07, "MEAN_MOTION_DDOT": 0}, "tle": {"line1": "1 61183U 24167B   25357.41018545  .00000073  00000+0  00000+0 0  9997", "line2": "2 61183  55.2365 226.1435 0001216 108.5259  72.9218  1.70473667  7850"}}, "geometry": {"type": "Point", "coordinates": [-153.48941668082676, -25.777314866949492]}}, {"type": "Feature", "properties": {"norad_id": 61186, "name": "BEIDOU-3 M25 (C47)", "group": "gnss", "lat": -39.42118438124067, "lon": -87.41708551437898, "alt_km": 21517.88962912658, "timestamp": "2025-12-25T09:48:52.535887+00:00", "meta": {"OBJECT_NAME": "BEIDOU-3 M25 (C47)", "OBJECT_ID": "2024-168B", "EPOCH": "2025-12-24T22:47:22.891200", "MEAN_MOTION": 1.86230024, "ECCENTRICITY": 0.0005414, "INCLINATION": 54.6312, "RA_OF_ASC_NODE": 308.298, "ARG_OF_PERICENTER": 300.1536, "MEAN_ANOMALY": 60.716, "EPHEMERIS_TYPE": 0, "CLASSIFICATION_TYPE": "U", "NORAD_CAT_ID": 61186, "ELEMENT_SET_NO": 999, "REV_AT_EPOCH": 854, "BSTAR": 0, "MEAN_MOTION_DOT": -5.3e-07, "MEAN_MOTION_DDOT": 0}, "tle": {"line1": "1 61186U 24168B   25358.94957050 -.00000053  00000+0  00000+0 0  9992", "line2": "2 61186  54.6312 308.2980 0005414 300.1536  60.7160  1.86230024  8540"}}, "geometry": {"type": "Point", "coordinates": [-87.41708551437898, -39.42118438124067]}}, {"type": "Feature", "properties": {"norad_id": 61187, "name": "BEIDOU-3 M27 (C49)", "group": "gnss", "lat": 54.17458161837099, "lon": 27.696067088080266, "alt_km": 21523.385224034013, "timestamp": "2025-12-25T09:48:52.535901+00:00", "meta": {"OBJECT_NAME": "BEIDOU-3 M27 (C49)", "OBJECT_ID": "2024-168C", "EPOCH": "2025-12-24T11:58:42.703968", "MEAN_MOTION": 1.86230214, "ECCENTRICITY": 0.00025498, "INCLINATION": 54.6271, "RA_OF_ASC_NODE": 308.2972, "ARG_OF_PERICENTER": 341.1652, "MEAN_ANOMALY": 212.6408, "EPHEMERIS_TYPE": 0, "CLASSIFICATION_TYPE": "U", "NORAD_CAT_ID": 61187, "ELEMENT_SET_NO": 999, "REV_AT_EPOCH": 600, "BSTAR": 0, "MEAN_MOTION_DOT": -5.3e-07, "MEAN_MOTION_DDOT": 0}, "tle": {"line1": "1 61187U 24168C   25358.49910537 -.00000053  00000+0  00000+0 0  9992", "line2": "2 61187  54.6271 308.2972 0002549 341.1652 212.6408  1.86230214  6009"}}, "geometry": {"type": "Point", "coordinates": [27.696067088080266, 54.17458161837099]}}, {"type": "Feature", "properties": {"norad_id": 62339, "name": "GPS BIII-7  (PRN 01)", "group": "gnss", "lat": 37.94933255948606, "lon": 14.43805543883392, "alt_km": 20161.425014700217, "timestamp": "2025-12-25T09:48:52.535912+00:00", "meta": {"OBJECT_NAME": "GPS BIII-7  (PRN 01)", "OBJECT_ID": "2024-242A", "EPOCH": "2025-12-24T14:08:35.073312", "MEAN_MOTION": 2.00568073, "ECCENTRICITY": 0.00128162, "INCLINATION": 54.9201, "RA_OF_ASC_NODE": 341.2611, "ARG_OF_PERICENTER": 346.3759, "MEAN_ANOMALY": 190.3817, "EPHEMERIS_TYPE": 0, "CLASSIFICATION_TYPE": "U", "NORAD_CAT_ID": 62339, "ELEMENT_SET_NO": 999, "REV_AT_EPOCH": 775, "BSTAR": 0, "MEAN_MOTION_DOT": -6.2e-07, "MEAN_MOTION_DDOT": 0}, "tle": {"line1": "1 62339U 24242A   25358.58929483 -.00000062  00000+0  00000+0 0  9995", "line2": "2 62339  54.9201 341.2611 0012816 346.3759 190.3817  2.00568073  7758"}}, "geometry": {"type": "Point", "coordinates": [14.43805543883392, 37.94933255948606]}}, {"type": "Feature", "properties": {"norad_id": 62850, "name": "NVS-02 (IRNSS-1K)", "group": "gnss", "lat": -10.306163875753105, "lon": -65.25203126670752, "alt_km": 2439.18034678584, "timestamp": "2025-12-25T09:48:52.535924+00:00", "meta": {"OBJECT_NAME": "NVS-02 (IRNSS-1K)", "OBJECT_ID": "2025-020A", "EPOCH": "2025-12-23T02:48:28.612512", "MEAN_MOTION": 2.17602057, "ECCENTRICITY": 0.73473509, "INCLINATION": 20.9588, "RA_OF_ASC_NODE": 323.9017, "ARG_OF_PERICENTER": 32.9618, "MEAN_ANOMALY": 356.3768, "EPHEMERIS_TYPE": 0, "CLASSIFICATION_TYPE": "U", "NORAD_CAT_ID": 62850, "ELEMENT_SET_NO": 999, "REV_AT_EPOCH": 714, "BSTAR": 0.00026724694, "MEAN_MOTION_DOT": 1.47e-06, "MEAN_MOTION_DDOT": 0}, "tle": {"line1": "1 62850U 25020A   25357.11699783  .00000147  00000+0  26725-3 0  9992", "line2": "2 62850  20.9588 323.9017 7347350  32.9618 356.3768  2.17602057  7148"}}, "geometry": {"type": "Point", "coordinates": [-65.25203126670752, -10.306163875753105]}}, {"type": "Feature", "properties": {"norad_id": 62876, "name": "QZS-6 (QZSS/PRN 200)", "group": "gnss", "lat": -0.06939321277661281, "lon": -28.063437959561632, "alt_km": 35782.03375349376, "timestamp": "2025-12-25T09:48:52.535937+00:00", "meta": {"OBJECT_NAME": "QZS-6 (QZSS/PRN 200)", "OBJECT_ID": "2025-023A", "EPOCH": "2025-12-24T19:49:25.245696", "MEAN_MOTION": 1.00270652, "ECCENTRICITY": 0.00016452, "INCLINATION": 0.0583, "RA_OF_ASC_NODE": 74.0221, "ARG_OF_PERICENTER": 207.3878, "MEAN_ANOMALY": 200.0828, "EPHEMERIS_TYPE": 0, "CLASSIFICATION_TYPE": "U", "NORAD_CAT_ID": 62876, "ELEMENT_SET_NO": 999, "REV_AT_EPOCH": 321, "BSTAR": 0, "MEAN_MOTION_DOT": -2.12e-06, "MEAN_MOTION_DDOT": 0}, "tle": {"line1": "1 62876U 25023A   25358.82598664 -.00000212  00000+0  00000+0 0  9996", "line2": "2 62876   0.0583  74.0221 0001645 207.3878 200.0828  1.00270652  3213"}}, "geometry": {"type": "Point", "coordinates": [-28.063437959561632, -0.06939321277661281]}}, {"type": "Feature", "properties": {"norad_id": 63130, "name": "COSMOS 2584 (704K)", "group": "gnss", "lat": -63.63265668406171, "lon": 8.55960738841053, "alt_km": 19125.85962505972, "timestamp": "2025-12-25T09:48:52.535949+00:00", "meta": {"OBJECT_NAME": "COSMOS 2584 (704K)", "OBJECT_ID": "2025-042A", "EPOCH": "2025-12-24T02:34:25.549824", "MEAN_MOTION": 2.13102981, "ECCENTRICITY": 0.00077651, "INCLINATION": 64.9819, "RA_OF_ASC_NODE": 78.7588, "ARG_OF_PERICENTER": 220.6893, "MEAN_ANOMALY": 139.3012, "EPHEMERIS_TYPE": 0, "CLASSIFICATION_TYPE": "U", "NORAD_CAT_ID": 63130, "ELEMENT_SET_NO": 999, "REV_AT_EPOCH": 631, "BSTAR": 0, "MEAN_MOTION_DOT": 1e-08, "MEAN_MOTION_DDOT": 0}, "tle": {"line1": "1 63130U 25042A   25358.10724016  .00000001  00000+0  00000+0 0  9999", "line2": "2 63130  64.9819  78.7588 0007765 220.6893 139.3012  2.13102981  6316"}}, "geometry": {"type": "Point", "coordinates": [8.55960738841053, -63.63265668406171]}}, {"type": "Feature", "properties": {"norad_id": 64202, "name": "GPS BIII-8  (PRN 21)", "group": "gnss", "lat": -43.795925135732666, "lon": -99.8922931656342, "alt_km": 20183.25856902947, "timestamp": "2025-12-25T09:48:52.535962+00:00", "meta": {"OBJECT_NAME": "GPS BIII-8  (PRN 21)", "OBJECT_ID": "2025-116A", "EPOCH": "2025-12-24T05:06:23.734944", "MEAN_MOTION": 2.0055752, "ECCENTRICITY": 0.00059658, "INCLINATION": 55.1137, "RA_OF_ASC_NODE": 38.1782, "ARG_OF_PERICENTER": 310.8419, "MEAN_ANOMALY": 143.1183, "EPHEMERIS_TYPE": 0, "CLASSIFICATION_TYPE": "U", "NORAD_CAT_ID": 64202, "ELEMENT_SET_NO": 999, "REV_AT_EPOCH": 436, "BSTAR": 0, "MEAN_MOTION_DOT": -5e-07, "MEAN_MOTION_DDOT": 0}, "tle": {"line1": "1 64202U 25116A   25358.21277471 -.00000050  00000+0  00000+0 0  9997", "line2": "2 64202  55.1137  38.1782 0005965 310.8419 143.1183  2.00557520  4368"}}, "geometry": {"type": "Point", "coordinates": [-99.8922931656342, -43.795925135732666]}}, {"type": "Feature", "properties": {"norad_id": 65590, "name": "COSMOS 2596 (708K)", "group": "gnss", "lat": 33.08968237438623, "lon": -21.071539093557817, "alt_km": 19125.931441457975, "timestamp": "2025-12-25T09:48:52.535973+00:00", "meta": {"OBJECT_NAME": "COSMOS 2596 (708K)", "OBJECT_ID": "2025-206B", "EPOCH": "2025-12-24T10:04:00.075648", "MEAN_MOTION": 2.13100293, "ECCENTRICITY": 0.00140917, "INCLINATION": 64.738, "RA_OF_ASC_NODE": 321.0695, "ARG_OF_PERICENTER": 307.5813, "MEAN_ANOMALY": 50.2886, "EPHEMERIS_TYPE": 0, "CLASSIFICATION_TYPE": "U", "NORAD_CAT_ID": 65590, "ELEMENT_SET_NO": 999, "REV_AT_EPOCH": 218, "BSTAR": 0, "MEAN_MOTION_DOT": -3.5e-07, "MEAN_MOTION_DDOT": 0}, "tle": {"line1": "1 65590U 25206B   25358.41944532 -.00000035  00000+0  00000+0 0  9992", "line2": "2 65590  64.7380 321.0695 0014091 307.5813  50.2886  2.13100293  2184"}}, "geometry": {"type": "Point", "coordinates": [-21.071539093557817, 33.08968237438623]}}]}